0 ARIANE 44L DEB (SPELDA)
1 27401U 02015C   13282.53566388  .00030933  00000-0  56063-2 0  2366
2 27401 003.4998 188.0652 6346611 185.6813 024.3529 03.54141799122528
0 ARIANE 44L DEB (SPELDA)
1 27401U 02015C   13283.07221825  .00030957  00000-0  56129-2 0  2370
2 27401 003.4996 187.6758 6346361 186.4607 348.3749 03.54178550122540
0 ARIANE 44L DEB (SPELDA)
1 27401U 02015C   13283.93796081  .00032378  00000-0  58463-2 0  2389
2 27401 003.5017 186.9931 6346236 187.7613 012.2249 03.54219500122578
0 ARIANE 44L DEB (SPELDA)
1 27401U 02015C   13285.63527519  .00032233  00000-0  58240-2 0  2402
2 27401 003.5011 185.7400 6345614 190.2248 016.8354 03.54320245122635
0 ARIANE 44L DEB (SPELDA)
1 27401U 02015C   13286.48393056  .00032038  00000-0  57809-2 0  2417
2 27401 003.5009 185.1129 6345280 191.4686 019.3579 03.54380130122661
0 ARIANE 44L DEB (SPELDA)
1 27401U 02015C   13287.02223014  .00034237  00000-0  61811-2 0  2426
2 27401 003.5013 184.7384 6345036 192.2363 346.1002 03.54413641122682
0 ARIANE 44L DEB (SPELDA)
1 27401U 02015C   13288.46255807  .00037455  00000-0  67070-2 0  2439
2 27401 003.5018 183.7206 6344298 194.3061 023.8985 03.54553476122732
0 ARIANE 44L DEB (SPELDA)
1 27401U 02015C   13289.28125346  .00033475  00000-0  59844-2 0  2443
2 27401 003.5017 183.0946 6343870 195.5207 348.8231 03.54624413122762
0 ARIANE 44L DEB (SPELDA)
1 27401U 02015C   13289.59613837  .00035295  00000-0  63189-2 0  2454
2 27401 003.5028 182.8444 6343725 195.9817 030.7993 03.54636463122775
0 ARIANE 44L DEB (SPELDA)
1 27401U 02015C   13290.42957851  .00034597  00000-0  61750-2 0  2462
2 27401 003.5026 182.2345 6343365 197.1860 014.8152 03.54697969122801
0 ARIANE 44L DEB (SPELDA)
1 27401U 02015C   13292.10029906  .00034092  00000-0  61020-2 0  2471
2 27401 003.5010 181.0412 6342451 199.5663 348.3771 03.54807728122862
0 ARIANE 44L DEB (SPELDA)
1 27401U 02015C   13292.40412120  .00033750  00000-0  60295-2 0  2482
2 27401 003.5007 180.8171 6342322 200.0094 016.4317 03.54832302122876
0 ARIANE 44L DEB (SPELDA)
1 27401U 02015C   13292.96837529  .00035123  00000-0  62432-2 0  2499
2 27401 003.5016 180.3608 6342160 200.8704 017.2058 03.54872587122894
0 ARIANE 44L DEB (SPELDA)
1 27401U 02015C   13293.53867527  .00034866  00000-0  62055-2 0  2500
2 27401 003.5014 179.9427 6341799 201.6941 025.7873 03.54916050122910
0 ARIANE 44L DEB (SPELDA)
1 27401U 02015C   13294.90824737  .00035914  00000-0  63830-2 0  2516
2 27401 003.5012 178.9257 6341125 203.6968 335.8338 03.55012991122960
0 ARIANE 44L DEB (SPELDA)
1 27401U 02015C   13295.50821237  .00035869  00000-0  63543-2 0  2526
2 27401 003.5010 178.4870 6340823 204.5667 022.5988 03.55068764122986
